NORAD_CAT_ID,OBJECT_NAME,OBJECT_TYPE,EPOCH,MEAN_MOTION,ECCENTRICITY,INCLINATION,RA_OF_ASC_NODE,ARG_OF_PERICENTER,MEAN_ANOMALY,BSTAR,MEAN_MOTION_DOT,MEAN_MOTION_DDOT,TLE_LINE0,TLE_LINE1,TLE_LINE2,SEMIMAJOR_AXIS,PERIOD,APOGEE,PERIGEE,DECAYED
54098.0,STARLINK-5217,PAYLOAD,2024-06-12 19:24:35,15.0883159,0.0001141,53.2187,304.5481,85.7075,274.4048,-3.1298e-05,-7.86e-06,0.0,0 STARLINK-5217,1 54098U 22136AZ  24164.80874915 -.00000786  00000-0 -31298-4 0  9999,2 54098  53.2187 304.5481 0001141  85.7075 274.4048 15.08831590 91603,6917.906,95.438,540.56,538.982,0.0
54098.0,STARLINK-5217,PAYLOAD,2024-06-13 14:29:13,15.08829603,0.0001094,53.2187,300.9794,93.0721,267.0396,0.00016738,2.376e-05,0.0,0 STARLINK-5217,1 54098U 22136AZ  24165.60362636  .00002376  00000-0  16738-3 0  9996,2 54098  53.2187 300.9794 0001094  93.0721 267.0396 15.08829603 91254,6917.912,95.438,540.534,539.02,0.0
54098.0,STARLINK-5217,PAYLOAD,2024-06-13 16:04:36,15.08839864,0.0001023,53.2187,300.6852,75.501,284.6096,7.6708e-05,9.33e-06,0.0,0 STARLINK-5217,1 54098U 22136AZ  24165.66986255  .00000933  00000-0  76708-4 0  9992,2 54098  53.2187 300.6852 0001023  75.5010 284.6096 15.08839864 91267,6917.881,95.438,540.454,539.038,0.0
54098.0,STARLINK-5217,PAYLOAD,2024-06-14 14:20:00,15.08835362,0.000103,53.2184,296.5226,94.3286,265.7824,9.8006e-05,1.272e-05,0.0,0 STARLINK-5217,1 54098U 22136AZ  24166.59722606  .00001272  00000-0  98006-4 0  9995,2 54098  53.2184 296.5226 0001030  94.3286 265.7824 15.08835362 91408,6917.895,95.438,540.472,539.047,0.0
54098.0,STARLINK-5217,PAYLOAD,2024-06-14 15:55:23,15.0883537,0.000104,53.2185,296.2254,94.3695,265.7416,9.7054e-05,1.257e-05,0.0,0 STARLINK-5217,1 54098U 22136AZ  24166.66346642  .00001257  00000-0  97054-4 0  9990,2 54098  53.2185 296.2254 0001040  94.3695 265.7416 15.08835370 91419,6917.895,95.438,540.479,539.04,0.0
54098.0,STARLINK-5217,PAYLOAD,2024-06-15 14:10:47,15.08835654,0.0001458,53.2203,292.0649,82.8376,277.2782,1.1471e-05,-1.05e-06,0.0,0 STARLINK-5217,1 54098U 22136AZ  24167.59083104 -.00000105  00000-0  11471-4 0  9995,2 54098  53.2203 292.0649 0001458  82.8376 277.2782 15.08835654 91557,6917.894,95.438,540.767,538.75,0.0
54098.0,STARLINK-5217,PAYLOAD,2024-06-15 18:56:56,15.08842097,0.0001332,53.2191,291.168,70.0793,290.0343,5.1961e-05,5.39e-06,0.0,0 STARLINK-5217,1 54098U 22136AZ  24167.78954460  .00000539  00000-0  51961-4 0  9996,2 54098  53.2191 291.1680 0001332  70.0793 290.0343 15.08842097 91589,6917.874,95.437,540.66,538.818,0.0
54098.0,STARLINK-5217,PAYLOAD,2024-06-16 14:01:35,15.08833619,0.0001556,53.2194,287.6012,67.7355,292.3802,-3.14e-05,-7.88e-06,0.0,0 STARLINK-5217,1 54098U 22136AZ  24168.58443349 -.00000788  00000-0 -31400-4 0  9998,2 54098  53.2194 287.6012 0001556  67.7355 292.3802 15.08833619 91705,6917.9,95.438,540.841,538.688,0.0
54098.0,STARLINK-5217,PAYLOAD,2024-06-16 17:12:20,15.08846193,0.0001295,53.2186,287.0037,50.1597,309.9509,2.0617e-05,4e-07,0.0,0 STARLINK-5217,1 54098U 22136AZ  24168.71690294  .00000040  00000-0  20617-4 0  9993,2 54098  53.2186 287.0037 0001295  50.1597 309.9509 15.08846193 91723,6917.861,95.437,540.622,538.831,0.0
54098.0,STARLINK-5217,PAYLOAD,2024-06-17 13:52:21,15.08832349,0.0001145,53.2176,283.14,69.9834,290.1282,3.4204e-05,2.56e-06,0.0,0 STARLINK-5217,1 54098U 22136AZ  24169.57803145  .00000256  00000-0  34204-4 0  9995,2 54098  53.2176 283.1400 0001145  69.9834 290.1282 15.08832349 91850,6917.904,95.438,540.561,538.977,0.0
54098.0,STARLINK-5217,PAYLOAD,2024-06-18 01:00:03,15.0884575,0.0001119,53.2188,281.0588,70.1564,289.9549,2.5691e-05,1.21e-06,0.0,0 STARLINK-5217,1 54098U 22136AZ  24170.04170288  .00000121  00000-0  25691-4 0  9995,2 54098  53.2188 281.0588 0001119  70.1564 289.9549 15.08845750 92394,6917.863,95.437,540.502,538.954,0.0
54098.0,STARLINK-5217,PAYLOAD,2024-06-18 13:43:08,15.08840294,0.0001414,53.2189,278.6784,85.6576,274.4577,0.00012055,1.631e-05,0.0,0 STARLINK-5217,1 54098U 22136AZ  24170.57162441  .00001631  00000-0  12055-3 0  9991,2 54098  53.2189 278.6784 0001414  85.6576 274.4577 15.08840294 92003,6917.879,95.438,540.723,538.766,0.0
54098.0,STARLINK-5217,PAYLOAD,2024-06-19 13:33:56,15.08832004,0.0001433,53.2177,274.2183,93.3406,266.775,7.6061e-06,-1.67e-06,0.0,0 STARLINK-5217,1 54098U 22136AZ  24171.56523282 -.00000167  00000-0  76061-5 0  9998,2 54098  53.2177 274.2183 0001433  93.3406 266.7750 15.08832004 92629,6917.905,95.438,540.761,538.778,0.0
54098.0,STARLINK-5217,PAYLOAD,2024-06-19 16:44:42,15.08833458,0.0001408,53.2181,273.6236,92.089,268.0264,4.3948e-06,-2.18e-06,0.0,0 STARLINK-5217,1 54098U 22136AZ  24171.69771256 -.00000218  00000-0  43948-5 0  9993,2 54098  53.2181 273.6236 0001408  92.0890 268.0264 15.08833458 92170,6917.9,95.438,540.739,538.791,0.0
54098.0,STARLINK-5217,PAYLOAD,2024-06-20 13:24:42,15.08838034,0.0001282,53.2181,269.7584,92.0497,268.0642,1.3563e-05,-7.2e-07,0.0,0 STARLINK-5217,1 54098U 22136AZ  24172.55883080 -.00000072  00000-0  13563-4 0  9995,2 54098  53.2181 269.7584 0001282  92.0497 268.0642 15.08838034 92305,6917.886,95.438,540.638,538.865,0.0
54098.0,STARLINK-5217,PAYLOAD,2024-06-21 13:15:30,15.0883325,0.0001097,53.217,265.2997,89.3961,270.7157,4.4449e-05,4.2e-06,0.0,0 STARLINK-5217,1 54098U 22136AZ  24173.55243552  .00000420  00000-0  44449-4 0  9993,2 54098  53.2170 265.2997 0001097  89.3961 270.7157 15.08833250 92453,6917.901,95.438,540.525,539.007,0.0
54098.0,STARLINK-5217,PAYLOAD,2024-06-22 05:09:21,15.08838282,0.0001017,53.2168,262.3256,90.3935,269.7173,8.4303e-05,1.054e-05,0.0,0 STARLINK-5217,1 54098U 22136AZ  24174.21483232  .00001054  00000-0  84303-4 0  9995,2 54098  53.2168 262.3256 0001017  90.3935 269.7173 15.08838282 93021,6917.886,95.438,540.454,539.047,0.0
54098.0,STARLINK-5217,PAYLOAD,2024-06-22 11:30:54,15.08839082,0.000103,53.2168,261.1359,89.3471,270.7639,8.7112e-05,1.099e-05,0.0,0 STARLINK-5217,1 54098U 22136AZ  24174.47979239  .00001099  00000-0  87112-4 0  9990,2 54098  53.2168 261.1359 0001030  89.3471 270.7639 15.08839082 92599,6917.883,95.438,540.461,539.036,0.0
54098.0,STARLINK-5217,PAYLOAD,2024-06-23 11:21:41,15.08840715,0.0001055,53.2172,256.6755,97.1109,263.0004,7.2177e-05,8.61e-06,0.0,0 STARLINK-5217,1 54098U 22136AZ  24175.47339169  .00000861  00000-0  72177-4 0  9994,2 54098  53.2172 256.6755 0001055  97.1109 263.0004 15.08840715 93211,6917.878,95.438,540.473,539.013,0.0
54098.0,STARLINK-5217,PAYLOAD,2024-06-23 14:32:27,15.08840036,0.0001001,53.2165,256.08,93.8465,266.2641,8.5052e-05,1.066e-05,0.0,0 STARLINK-5217,1 54098U 22136AZ  24175.60587145  .00001066  00000-0  85052-4 0  9992,2 54098  53.2165 256.0800 0001001  93.8465 266.2641 15.08840036 92764,6917.88,95.438,540.438,539.053,0.0
54098.0,STARLINK-5217,PAYLOAD,2024-06-24 12:47:51,15.08843727,0.0001153,53.2174,251.9168,78.5309,281.5813,3.886e-05,3.31e-06,0.0,0 STARLINK-5217,1 54098U 22136AZ  24176.53323018  .00000331  00000-0  38860-4 0  9991,2 54098  53.2174 251.9168 0001153  78.5309 281.5813 15.08843727 93379,6917.869,95.437,540.532,538.936,0.0
54098.0,STARLINK-5217,PAYLOAD,2024-06-25 11:03:15,15.08838425,0.0001274,53.2174,247.754,74.0962,286.0171,1.7643e-05,-7e-08,0.0,0 STARLINK-5217,1 54098U 22136AZ  24177.46059412 -.00000007  00000-0  17643-4 0  9995,2 54098  53.2174 247.7540 0001274  74.0962 286.0171 15.08838425 93518,6917.885,95.438,540.632,538.869,0.0
54098.0,STARLINK-5217,PAYLOAD,2024-06-25 12:38:38,15.08839482,0.0001296,53.2176,247.4567,74.3872,285.7263,2.6782e-05,1.38e-06,0.0,0 STARLINK-5217,1 54098U 22136AZ  24177.52683334  .00000138  00000-0  26782-4 0  9996,2 54098  53.2176 247.4567 0001296  74.3872 285.7263 15.08839482 93054,6917.882,95.438,540.644,538.85,0.0
54098.0,STARLINK-5217,PAYLOAD,2024-06-26 12:29:25,15.08840565,0.0001253,53.2167,242.996,83.683,276.4304,4.7093e-05,4.62e-06,0.0,0 STARLINK-5217,1 54098U 22136AZ  24178.52043196  .00000462  00000-0  47093-4 0  9991,2 54098  53.2167 242.9960 0001253  83.6830 276.4304 15.08840565 93676,6917.879,95.438,540.61,538.877,0.0
54098.0,STARLINK-5217,PAYLOAD,2024-06-27 12:20:12,15.08838014,0.0001275,53.217,238.5359,97.5762,262.5375,3.8555e-05,3.26e-06,0.0,0 STARLINK-5217,1 54098U 22136AZ  24179.51403459  .00000326  00000-0  38555-4 0  9995,2 54098  53.2170 238.5359 0001275  97.5762 262.5375 15.08838014 93350,6917.886,95.438,540.633,538.869,0.0
54098.0,STARLINK-5217,PAYLOAD,2024-06-28 10:35:36,15.08841996,0.0001217,53.2162,234.3738,95.2542,264.8589,9.8302e-05,1.277e-05,0.0,0 STARLINK-5217,1 54098U 22136AZ  24180.44139158  .00001277  00000-0  98302-4 0  9993,2 54098  53.2162 234.3738 0001217  95.2542 264.8589 15.08841996 93493,6917.874,95.437,540.581,538.897,0.0
54098.0,STARLINK-5217,PAYLOAD,2024-06-29 04:04:50,15.08840456,0.0001165,53.2159,231.1038,95.031,265.0816,7.1575e-05,8.51e-06,0.0,0 STARLINK-5217,1 54098U 22136AZ  24181.17003343  .00000851  00000-0  71575-4 0  9990,2 54098  53.2159 231.1038 0001165  95.0310 265.0816 15.08840456 94071,6917.879,95.438,540.55,538.938,0.0
54098.0,STARLINK-5217,PAYLOAD,2024-06-29 10:26:24,15.08831567,0.0001126,53.2152,229.9141,100.0374,260.0746,-3.2353e-05,-8.03e-06,0.0,0 STARLINK-5217,1 54098U 22136AZ  24181.43500246 -.00000803  00000-0 -32353-4 0  9993,2 54098  53.2152 229.9141 0001126 100.0374 260.0746 15.08831567 94113,6917.906,95.438,540.55,538.992,0.0
54098.0,STARLINK-5217,PAYLOAD,2024-06-29 19:58:42,15.0883582,0.0001147,53.2158,228.1302,102.9834,257.1286,2.466e-05,1.05e-06,0.0,0 STARLINK-5217,1 54098U 22136AZ  24181.83243921  .00000105  00000-0  24660-4 0  9996,2 54098  53.2158 228.1302 0001147 102.9834 257.1286 15.08835820 93700,6917.893,95.438,540.552,538.965,0.0
54098.0,STARLINK-5217,PAYLOAD,2024-06-30 11:52:34,15.08838433,0.0001399,53.2163,225.1602,115.9301,244.1835,2.4337e-05,9.9e-07,0.0,0 STARLINK-5217,1 54098U 22136AZ  24182.49484005  .00000099  00000-0  24337-4 0  9992,2 54098  53.2163 225.1602 0001399 115.9301 244.1835 15.08838433 93808,6917.885,95.438,540.718,538.782,0.0
